NORAD_CAT_ID,OBJECT_NAME,OBJECT_TYPE,EPOCH,MEAN_MOTION,ECCENTRICITY,INCLINATION,RA_OF_ASC_NODE,ARG_OF_PERICENTER,MEAN_ANOMALY,BSTAR,MEAN_MOTION_DOT,MEAN_MOTION_DDOT,TLE_LINE0,TLE_LINE1,TLE_LINE2,SEMIMAJOR_AXIS,PERIOD,APOGEE,PERIGEE,DECAYED
49419.0,STARLINK-3120,PAYLOAD,2022-01-15 22:00:01,15.24896558,0.0001498,53.2174,185.3607,48.0142,20.8434,-0.027984,-0.00654751,0.0,0 STARLINK-3120,1 49419U 21104M   22015.91668981 -.00654751  00000-0 -27984-1 0  9994,2 49419  53.2174 185.3607 0001498  48.0142  20.8434 15.24896558 11176,6869.233,94.433,492.127,490.069,0.0
49419.0,STARLINK-3120,PAYLOAD,2022-01-16 14:00:01,15.23966328,0.0001844,53.2176,182.2933,38.776,90.6721,-0.029012,-0.00659748,0.0,0 STARLINK-3120,1 49419U 21104M   22016.58334491 -.00659748  00000-0 -29012-1 0  9999,2 49419  53.2176 182.2933 0001844  38.7760  90.6721 15.23966328  3653,6872.028,94.49,495.16,492.626,0.0
49419.0,STARLINK-3120,PAYLOAD,2022-01-16 22:00:00,15.234953400000002,0.00016,53.2173,180.763,51.0684,107.8665,-0.029053,-0.00651989,0.0,0 STARLINK-3120,1 49419U 21104M   22016.91667824 -.00651989  00000-0 -29053-1 0  9999,2 49419  53.2173 180.7630 0001600  51.0684 107.8665 15.23495340  3659,6873.444,94.519,496.409,494.21,0.0
49419.0,STARLINK-3120,PAYLOAD,2022-01-17 00:00:00,15.23384188,0.0001524,53.2171,180.3799,56.0868,200.1304,-0.0296,-0.00661336,0.0,0 STARLINK-3120,1 49419U 21104M   22017.00001157 -.00661336  00000-0 -29600-1 0  9996,2 49419  53.2171 180.3799 0001524  56.0868 200.1304 15.23384188 11331,6873.779,94.526,496.691,494.596,0.0
49419.0,STARLINK-3120,PAYLOAD,2022-01-17 14:00:01,15.22565436,0.0001781999999999,53.2176,177.7024,45.011,171.2139,-0.03014,-0.00657494,0.0,0 STARLINK-3120,1 49419U 21104M   22017.58334491 -.00657494  00000-0 -30140-1 0  9990,2 49419  53.2176 177.7024 0001782  45.0110 171.2139 15.22565436  3657,6876.243,94.577,499.333,496.882,0.0
49419.0,STARLINK-3120,PAYLOAD,2022-01-17 22:00:00,15.22096903,0.0001539,53.2172,176.1752,56.3037,187.7253,-0.03037,-0.00653627,0.0,0 STARLINK-3120,1 49419U 21104M   22017.91667824 -.00653627  00000-0 -30370-1 0  9995,2 49419  53.2172 176.1752 0001539  56.3037 187.7253 15.22096903  3643,6877.654,94.606,500.577,498.46,0.0
49419.0,STARLINK-3120,PAYLOAD,2022-01-18 06:00:00,15.21631009,0.0001551,53.2174,174.6463,51.533,219.7407,-0.030855,-0.00654875,0.0,0 STARLINK-3120,1 49419U 21104M   22018.25001157 -.00654875  00000-0 -30855-1 0  9998,2 49419  53.2174 174.6463 0001551  51.5330 219.7407 15.21631009 11528,6879.058000000001,94.635,501.989,499.856,0.0
49419.0,STARLINK-3120,PAYLOAD,2022-01-18 14:00:01,15.21165901,0.0001638,53.2175,173.1212,46.9261,251.0295,-0.03141,-0.00657381,0.0,0 STARLINK-3120,1 49419U 21104M   22018.58334491 -.00657381  00000-0 -31410-1 0  9997,2 49419  53.2175 173.1212 0001638  46.9261 251.0295 15.21165901  3643,6880.46,94.664,503.452,501.198,0.0
49419.0,STARLINK-3120,PAYLOAD,2022-01-18 22:00:00,15.20698974,0.0001365,53.2172,171.5971,60.7653,263.3121,-0.031785,-0.00656205,0.0,0 STARLINK-3120,1 49419U 21104M   22018.91667824 -.00656205  00000-0 -31785-1 0  9992,2 49419  53.2172 171.5971 0001365  60.7653 263.3121 15.20698974  3644,6881.868,94.693,504.672,502.794,0.0
49419.0,STARLINK-3120,PAYLOAD,2022-01-19 06:00:02,15.20169458,0.0001551,53.2168,170.0729,42.1115,307.6217,-0.027653,-0.00567929,0.0,0 STARLINK-3120,1 49419U 21104M   22019.25002315 -.00567929  00000-0 -27653-1 0  9991,2 49419  53.2168 170.0729 0001551  42.1115 307.6217 15.20169458 11678,6883.465999999999,94.726,506.399,504.263,0.0
49419.0,STARLINK-3120,PAYLOAD,2022-01-19 14:00:01,15.19684293,0.0001437,53.2169,168.5508,64.2158,310.4662,-0.026855,-0.00545203,0.0,0 STARLINK-3120,1 49419U 21104M   22019.58334491 -.00545203  00000-0 -26855-1 0  9994,2 49419  53.2169 168.5508 0001437  64.2158 310.4662 15.19684293 11720,6884.931,94.757,507.785,505.807,0.0
49419.0,STARLINK-3120,PAYLOAD,2022-01-19 22:00:00,15.19299382,0.0001381,53.2172,167.02900000000002,53.7687,345.3119,-0.033119,-0.00663409,0.0,0 STARLINK-3120,1 49419U 21104M   22019.91667824 -.00663409  00000-0 -33119-1 0  9990,2 49419  53.2172 167.0290 0001381  53.7687 345.3119 15.19299382 11785,6886.094,94.781,508.91,507.008,0.0
49419.0,STARLINK-3120,PAYLOAD,2022-01-20 14:00:01,15.183668,0.0001702,53.2175,163.9886,42.0695,44.2105,-0.034149,-0.00665633,0.0,0 STARLINK-3120,1 49419U 21104M   22020.58334491 -.00665633  00000-0 -34149-1 0  9991,2 49419  53.2175 163.9886 0001702  42.0695  44.2105 15.18366800  3646,6888.913000000001,94.839,511.951,509.606,0.0
49419.0,STARLINK-3120,PAYLOAD,2022-01-20 22:00:00,15.17899232,0.0001416999999999,53.2172,162.4706,58.2372,50.8011,-0.034462,-0.00662856,0.0,0 STARLINK-3120,1 49419U 21104M   22020.91667824 -.00662856  00000-0 -34462-1 0  9999,2 49419  53.2172 162.4706 0001417  58.2372  50.8011 15.17899232 11931,6890.328,94.868,513.169,511.216,0.0
49419.0,STARLINK-3120,PAYLOAD,2022-01-21 14:00:01,15.16965765,0.0001807,53.2175,159.4368,43.4163,109.4579,-0.035442,-0.00663591,0.0,0 STARLINK-3120,1 49419U 21104M   22021.58334491 -.00663591  00000-0 -35442-1 0  9990,2 49419  53.2175 159.4368 0001807  43.4163 109.4579 15.16965765  3655,6893.154,94.926,516.265,513.774,0.0
49419.0,STARLINK-3120,PAYLOAD,2022-01-21 22:00:00,15.16499944,0.0001554,53.2172,157.922,57.2356,116.7145,-0.035942,-0.00663958,0.0,0 STARLINK-3120,1 49419U 21104M   22021.91667824 -.00663958  00000-0 -35942-1 0  9998,2 49419  53.2172 157.9220 0001554  57.2356 116.7145 15.16499944 12086,6894.566,94.955,517.502,515.359,0.0
49419.0,STARLINK-3120,PAYLOAD,2022-01-22 14:00:01,15.15565185,0.0001817,53.2175,154.8949,46.3408,168.0816,-0.036797,-0.00661971,0.0,0 STARLINK-3120,1 49419U 21104M   22022.58334491 -.00661971  00000-0 -36797-1 0  9995,2 49419  53.2175 154.8949 0001817  46.3408 168.0816 15.15565185  3638,6897.4,95.014,520.518,518.012,0.0
49419.0,STARLINK-3120,PAYLOAD,2022-01-22 22:00:00,15.15101414,0.0001498,53.2172,153.3832,62.2443,171.5716,-0.037551,-0.00666342,0.0,0 STARLINK-3120,1 49419U 21104M   22022.91667824 -.00666342  00000-0 -37551-1 0  9997,2 49419  53.2172 153.3832 0001498  62.2443 171.5716 15.15101414  3630,6898.808000000001,95.043,521.706,519.639,0.0
49419.0,STARLINK-3120,PAYLOAD,2022-01-23 06:00:00,15.14633339,0.0001533,53.2172,151.8707,58.7083,193.9434,-0.037929,-0.00664293,0.0,0 STARLINK-3120,1 49419U 21104M   22023.25001157 -.00664293  00000-0 -37929-1 0  9998,2 49419  53.2172 151.8707 0001533  58.7083 193.9434 15.14633339 12285,6900.229,95.073,523.1519999999998,521.036,0.0
49419.0,STARLINK-3120,PAYLOAD,2022-01-23 14:00:01,15.1416565,0.0001728,53.2174,150.3628,47.7972,223.1272,-0.038297,-0.00662069,0.0,0 STARLINK-3120,1 49419U 21104M   22023.58334491 -.00662069  00000-0 -38297-1 0  9992,2 49419  53.2174 150.3628 0001728  47.7972 223.1272 15.14165650  3635,6901.65,95.102,524.707,522.322,0.0
49419.0,STARLINK-3120,PAYLOAD,2022-01-23 22:00:00,15.13702612,0.0001431999999999,53.2172,148.8541,61.8878,226.7482,-0.039181,-0.00668105,0.0,0 STARLINK-3120,1 49419U 21104M   22023.91667824 -.00668105  00000-0 -39181-1 0  9998,2 49419  53.2172 148.8541 0001432  61.8878 226.7482 15.13702612  3639,6903.057,95.131,525.911,523.934,0.0
49419.0,STARLINK-3120,PAYLOAD,2022-01-24 06:00:02,15.13232393,0.0001531999999999,53.2173,147.345,52.3022,253.5514,-0.039332,-0.00662242,0.0,0 STARLINK-3120,1 49419U 21104M   22024.25002315 -.00662242  00000-0 -39332-1 0  9998,2 49419  53.2173 147.3450 0001532  52.3022 253.5514 15.13232393 12436,6904.486999999999,95.161,527.41,525.294,0.0
49419.0,STARLINK-3120,PAYLOAD,2022-01-24 14:00:01,15.12766868,0.0001745,53.2173,145.8404,42.3942,279.9863,-0.039933,-0.00663546,0.0,0 STARLINK-3120,1 49419U 21104M   22024.58334491 -.00663546  00000-0 -39933-1 0  9992,2 49419  53.2173 145.8404 0001745  42.3942 279.9863 15.12766868  3622,6905.903,95.19,528.974,526.563,0.0
49419.0,STARLINK-3120,PAYLOAD,2022-01-24 22:00:00,15.12302703,0.0001349,53.2172,144.3348,61.267,277.1437,-0.040738,-0.00667834,0.0,0 STARLINK-3120,1 49419U 21104M   22024.91667824 -.00667834  00000-0 -40738-1 0  9997,2 49419  53.2172 144.3348 0001349  61.2670 277.1437 15.12302703  3621,6907.316,95.219,530.113,528.25,0.0
49419.0,STARLINK-3120,PAYLOAD,2022-01-25 14:00:01,15.11368326,0.0001798,53.2173,141.3277,38.7146,330.0762,-0.041666,-0.00665626,0.0,0 STARLINK-3120,1 49419U 21104M   22025.58334491 -.00665626  00000-0 -41666-1 0  9990,2 49419  53.2173 141.3277 0001798  38.7146 330.0762 15.11368326 12638,6910.163000000001,95.278,533.271,530.786,0.0
49419.0,STARLINK-3120,PAYLOAD,2022-01-25 22:00:00,15.10902254,0.0001401,53.2172,139.8253,55.2557,327.8842,-0.042277,-0.00666573,0.0,0 STARLINK-3120,1 49419U 21104M   22025.91667824 -.00666573  00000-0 -42277-1 0  9997,2 49419  53.2172 139.8253 0001401  55.2557 327.8842 15.10902254  3652,6911.584,95.307,534.4169999999998,532.481,0.0
49419.0,STARLINK-3120,PAYLOAD,2022-01-26 14:00:01,15.09969346,0.0001949,53.2173,136.8248,35.1102,15.0453,-0.043411,-0.00666987,0.0,0 STARLINK-3120,1 49419U 21104M   22026.58334491 -.00666987  00000-0 -43411-1 0  9992,2 49419  53.2173 136.8248 0001949  35.1102  15.0453 15.09969346  3639,6914.431,95.366,537.643,534.948,0.0
49419.0,STARLINK-3120,PAYLOAD,2022-01-26 22:00:00,15.09500826,0.0001536,53.2172,135.3255,49.7434,13.0801,-0.043758,-0.00663838,0.0,0 STARLINK-3120,1 49419U 21104M   22026.91667824 -.00663838  00000-0 -43758-1 0  9994,2 49419  53.2172 135.3255 0001536  49.7434  13.0801 15.09500826 12843,6915.861,95.396,538.789,536.664,0.0
49419.0,STARLINK-3120,PAYLOAD,2022-01-27 04:00:00,15.09025135,0.000173,53.2173,134.2011,44.5651,297.4133,-0.0174889999999999,-0.00269732,0.0,0 STARLINK-3120,1 49419U 21104M   22027.16667824 -.00269732  00000-0 -17489-1 0  9999,2 49419  53.2173 134.2011 0001730  44.5651 297.4133 15.09025135 12876,6917.315,95.426,540.376,537.9830000000002,0.0
